[{"OBJECT_NAME":"STARLINK-37117","OBJECT_ID":"2026-053F","EPOCH":"2026-03-28T04:00:01.999584","MEAN_MOTION":15.80812258,"ECCENTRICITY":0.00011247,"INCLINATION":97.2834,"RA_OF_ASC_NODE":322.3201,"ARG_OF_PERICENTER":109.866,"MEAN_ANOMALY":342.6105,"EPHEMERIS_TYPE":0,"CLASSIFICATION_TYPE":"U","NORAD_CAT_ID":68212,"ELEMENT_SET_NO":999,"REV_AT_EPOCH":298,"BSTAR":0.00019293216,"MEAN_MOTION_DOT":0.00036964,"MEAN_MOTION_DDOT":0},{"OBJECT_NAME":"STARLINK-37116","OBJECT_ID":"2026-053G","EPOCH":"2026-03-28T04:00:01.999584","MEAN_MOTION":15.80817135,"ECCENTRICITY":0.00012852,"INCLINATION":97.2825,"RA_OF_ASC_NODE":322.3211,"ARG_OF_PERICENTER":103.9285,"MEAN_ANOMALY":352.8195,"EPHEMERIS_TYPE":0,"CLASSIFICATION_TYPE":"U","NORAD_CAT_ID":68213,"ELEMENT_SET_NO":999,"REV_AT_EPOCH":298,"BSTAR":0.00013982456,"MEAN_MOTION_DOT":0.00026724,"MEAN_MOTION_DDOT":0},{"OBJECT_NAME":"STARLINK-35854","OBJECT_ID":"2026-053H","EPOCH":"2026-03-28T04:00:01.999584","MEAN_MOTION":15.80823472,"ECCENTRICITY":0.0001034,"INCLINATION":97.2826,"RA_OF_ASC_NODE":322.323,"ARG_OF_PERICENTER":88.0321,"MEAN_ANOMALY":12.9874,"EPHEMERIS_TYPE":0,"CLASSIFICATION_TYPE":"U","NORAD_CAT_ID":68214,"ELEMENT_SET_NO":999,"REV_AT_EPOCH":274,"BSTAR":0.00010344982,"MEAN_MOTION_DOT":0.00019725,"MEAN_MOTION_DDOT":0},{"OBJECT_NAME":"STARLINK-36272","OBJECT_ID":"2026-053J","EPOCH":"2026-03-28T04:00:01.999584","MEAN_MOTION":15.80828491,"ECCENTRICITY":0.00013004,"INCLINATION":97.2822,"RA_OF_ASC_NODE":322.3245,"ARG_OF_PERICENTER":84.4676,"MEAN_ANOMALY":20.8263,"EPHEMERIS_TYPE":0,"CLASSIFICATION_TYPE":"U","NORAD_CAT_ID":68215,"ELEMENT_SET_NO":999,"REV_AT_EPOCH":287,"BSTAR":-9.4203775e-5,"MEAN_MOTION_DOT":-0.00018159,"MEAN_MOTION_DDOT":0},{"OBJECT_NAME":"STARLINK-37014","OBJECT_ID":"2026-053K","EPOCH":"2026-03-28T04:00:01.999584","MEAN_MOTION":15.80810767,"ECCENTRICITY":0.00011384,"INCLINATION":97.2825,"RA_OF_ASC_NODE":322.3267,"ARG_OF_PERICENTER":105.4395,"MEAN_ANOMALY":4.1366,"EPHEMERIS_TYPE":0,"CLASSIFICATION_TYPE":"U","NORAD_CAT_ID":68216,"ELEMENT_SET_NO":999,"REV_AT_EPOCH":298,"BSTAR":6.0183654e-5,"MEAN_MOTION_DOT":0.00011398,"MEAN_MOTION_DDOT":0},{"OBJECT_NAME":"STARLINK-37011","OBJECT_ID":"2026-053L","EPOCH":"2026-03-28T04:00:01.999584","MEAN_MOTION":15.80848239,"ECCENTRICITY":0.00014537,"INCLINATION":97.2822,"RA_OF_ASC_NODE":322.3281,"ARG_OF_PERICENTER":102.245,"MEAN_ANOMALY":11.5915,"EPHEMERIS_TYPE":0,"CLASSIFICATION_TYPE":"U","NORAD_CAT_ID":68217,"ELEMENT_SET_NO":999,"REV_AT_EPOCH":298,"BSTAR":-0.00029451484,"MEAN_MOTION_DOT":-0.00056277,"MEAN_MOTION_DDOT":0},{"OBJECT_NAME":"STARLINK-37108","OBJECT_ID":"2026-053M","EPOCH":"2026-03-28T04:00:01.999584","MEAN_MOTION":15.80860099,"ECCENTRICITY":0.00016937,"INCLINATION":97.2823,"RA_OF_ASC_NODE":322.3297,"ARG_OF_PERICENTER":108.3232,"MEAN_ANOMALY":9.788,"EPHEMERIS_TYPE":0,"CLASSIFICATION_TYPE":"U","NORAD_CAT_ID":68218,"ELEMENT_SET_NO":999,"REV_AT_EPOCH":298,"BSTAR":-0.00044150871,"MEAN_MOTION_DOT":-0.00084076,"MEAN_MOTION_DDOT":0},{"OBJECT_NAME":"STARLINK-37106","OBJECT_ID":"2026-053N","EPOCH":"2026-03-28T04:00:01.999584","MEAN_MOTION":15.80870716,"ECCENTRICITY":0.00010787,"INCLINATION":97.2815,"RA_OF_ASC_NODE":322.3314,"ARG_OF_PERICENTER":105.5497,"MEAN_ANOMALY":16.8332,"EPHEMERIS_TYPE":0,"CLASSIFICATION_TYPE":"U","NORAD_CAT_ID":68219,"ELEMENT_SET_NO":999,"REV_AT_EPOCH":298,"BSTAR":-0.00054078084,"MEAN_MOTION_DOT":-0.00102771,"MEAN_MOTION_DDOT":0},{"OBJECT_NAME":"STARLINK-37030","OBJECT_ID":"2026-053P","EPOCH":"2026-03-28T04:00:01.999584","MEAN_MOTION":15.80821265,"ECCENTRICITY":0.00014206,"INCLINATION":97.281,"RA_OF_ASC_NODE":322.3351,"ARG_OF_PERICENTER":94.4616,"MEAN_ANOMALY":36.4764,"EPHEMERIS_TYPE":0,"CLASSIFICATION_TYPE":"U","NORAD_CAT_ID":68220,"ELEMENT_SET_NO":999,"REV_AT_EPOCH":298,"BSTAR":3.5221805e-5,"MEAN_MOTION_DOT":6.612e-5,"MEAN_MOTION_DDOT":0},{"OBJECT_NAME":"STARLINK-37012","OBJECT_ID":"2026-053Q","EPOCH":"2026-03-28T04:00:01.999584","MEAN_MOTION":15.80846581,"ECCENTRICITY":0.00013566,"INCLINATION":97.281,"RA_OF_ASC_NODE":322.3332,"ARG_OF_PERICENTER":99.1544,"MEAN_ANOMALY":27.519,"EPHEMERIS_TYPE":0,"CLASSIFICATION_TYPE":"U","NORAD_CAT_ID":68221,"ELEMENT_SET_NO":999,"REV_AT_EPOCH":298,"BSTAR":-0.00031367732,"MEAN_MOTION_DOT":-0.00059899,"MEAN_MOTION_DDOT":0},{"OBJECT_NAME":"STARLINK-37110","OBJECT_ID":"2026-053R","EPOCH":"2026-03-28T04:00:01.999584","MEAN_MOTION":15.80819083,"ECCENTRICITY":0.00011435,"INCLINATION":97.2807,"RA_OF_ASC_NODE":322.3365,"ARG_OF_PERICENTER":105.9443,"MEAN_ANOMALY":29.2858,"EPHEMERIS_TYPE":0,"CLASSIFICATION_TYPE":"U","NORAD_CAT_ID":68222,"ELEMENT_SET_NO":999,"REV_AT_EPOCH":298,"BSTAR":-8.5714794e-5,"MEAN_MOTION_DOT":-0.00016531,"MEAN_MOTION_DDOT":0},{"OBJECT_NAME":"STARLINK-37025","OBJECT_ID":"2026-053S","EPOCH":"2026-03-28T04:00:01.999584","MEAN_MOTION":15.80792765,"ECCENTRICITY":9.835e-5,"INCLINATION":97.2806,"RA_OF_ASC_NODE":322.3381,"ARG_OF_PERICENTER":121.6236,"MEAN_ANOMALY":17.8676,"EPHEMERIS_TYPE":0,"CLASSIFICATION_TYPE":"U","NORAD_CAT_ID":68223,"ELEMENT_SET_NO":999,"REV_AT_EPOCH":298,"BSTAR":0.00034945121,"MEAN_MOTION_DOT":0.00067239,"MEAN_MOTION_DDOT":0},{"OBJECT_NAME":"STARLINK-36977","OBJECT_ID":"2026-053T","EPOCH":"2026-03-28T04:00:01.999584","MEAN_MOTION":15.80807362,"ECCENTRICITY":0.00010929,"INCLINATION":97.2793,"RA_OF_ASC_NODE":322.339,"ARG_OF_PERICENTER":91.2802,"MEAN_ANOMALY":52.496,"EPHEMERIS_TYPE":0,"CLASSIFICATION_TYPE":"U","NORAD_CAT_ID":68224,"ELEMENT_SET_NO":999,"REV_AT_EPOCH":287,"BSTAR":1.0767131e-5,"MEAN_MOTION_DOT":1.92e-5,"MEAN_MOTION_DDOT":0},{"OBJECT_NAME":"STARLINK-36960","OBJECT_ID":"2026-053U","EPOCH":"2026-03-28T04:00:01.999584","MEAN_MOTION":15.80792372,"ECCENTRICITY":0.00015616,"INCLINATION":97.279,"RA_OF_ASC_NODE":322.3413,"ARG_OF_PERICENTER":110.0058,"MEAN_ANOMALY":38.0466,"EPHEMERIS_TYPE":0,"CLASSIFICATION_TYPE":"U","NORAD_CAT_ID":68225,"ELEMENT_SET_NO":999,"REV_AT_EPOCH":296,"BSTAR":0.00030552762,"MEAN_MOTION_DOT":0.00058713,"MEAN_MOTION_DDOT":0},{"OBJECT_NAME":"STARLINK-37038","OBJECT_ID":"2026-053V","EPOCH":"2026-03-28T04:00:01.999584","MEAN_MOTION":15.80934055,"ECCENTRICITY":0.00012792,"INCLINATION":97.2789,"RA_OF_ASC_NODE":322.3443,"ARG_OF_PERICENTER":110.9707,"MEAN_ANOMALY":45.5749,"EPHEMERIS_TYPE":0,"CLASSIFICATION_TYPE":"U","NORAD_CAT_ID":68226,"ELEMENT_SET_NO":999,"REV_AT_EPOCH":296,"BSTAR":-0.00096385141,"MEAN_MOTION_DOT":-0.00181952,"MEAN_MOTION_DDOT":0},{"OBJECT_NAME":"STARLINK-37083","OBJECT_ID":"2026-053W","EPOCH":"2026-03-28T04:00:01.999584","MEAN_MOTION":15.80855924,"ECCENTRICITY":0.00014731,"INCLINATION":97.2791,"RA_OF_ASC_NODE":322.3432,"ARG_OF_PERICENTER":97.8102,"MEAN_ANOMALY":54.4939,"EPHEMERIS_TYPE":0,"CLASSIFICATION_TYPE":"U","NORAD_CAT_ID":68227,"ELEMENT_SET_NO":999,"REV_AT_EPOCH":298,"BSTAR":-0.00031541569,"MEAN_MOTION_DOT":-0.00060254,"MEAN_MOTION_DDOT":0}]
