STARLINK-37117          
1 68212U 26053F   26087.16668981  .00036964  00000+0  19293-3 0  9997
2 68212  97.2834 322.3201 0001124 109.8660 342.6105 15.80812258  2985
STARLINK-37116          
1 68213U 26053G   26087.16668981  .00026724  00000+0  13982-3 0  9990
2 68213  97.2825 322.3211 0001285 103.9285 352.8195 15.80817135  2984
STARLINK-35854          
1 68214U 26053H   26087.16668981  .00019725  00000+0  10345-3 0  9994
2 68214  97.2826 322.3230 0001034  88.0321  12.9874 15.80823472  2746
STARLINK-36272          
1 68215U 26053J   26087.16668981 -.00018159  00000+0 -94204-4 0  9994
2 68215  97.2822 322.3245 0001300  84.4676  20.8263 15.80828491  2878
STARLINK-37014          
1 68216U 26053K   26087.16668981  .00011398  00000+0  60184-4 0  9991
2 68216  97.2825 322.3267 0001138 105.4395   4.1366 15.80810767  2985
STARLINK-37011          
1 68217U 26053L   26087.16668981 -.00056277  00000+0 -29451-3 0  9990
2 68217  97.2822 322.3281 0001453 102.2450  11.5915 15.80848239  2983
STARLINK-37108          
1 68218U 26053M   26087.16668981 -.00084076  00000+0 -44151-3 0  9993
2 68218  97.2823 322.3297 0001693 108.3232   9.7880 15.80860099  2981
STARLINK-37106          
1 68219U 26053N   26087.16668981 -.00102771  00000+0 -54078-3 0  9996
2 68219  97.2815 322.3314 0001078 105.5497  16.8332 15.80870716  2980
STARLINK-37030          
1 68220U 26053P   26087.16668981  .00006612  00000+0  35222-4 0  9994
2 68220  97.2810 322.3351 0001420  94.4616  36.4764 15.80821265  2980
STARLINK-37012          
1 68221U 26053Q   26087.16668981 -.00059899  00000+0 -31368-3 0  9998
2 68221  97.2810 322.3332 0001356  99.1544  27.5190 15.80846581  2982
STARLINK-37110          
1 68222U 26053R   26087.16668981 -.00016531  00000+0 -85715-4 0  9991
2 68222  97.2807 322.3365 0001143 105.9443  29.2858 15.80819083  2980
STARLINK-37025          
1 68223U 26053S   26087.16668981  .00067239  00000+0  34945-3 0  9999
2 68223  97.2806 322.3381 0000983 121.6236  17.8676 15.80792765  2982
STARLINK-36977          
1 68224U 26053T   26087.16668981  .00001920  00000+0  10767-4 0  9992
2 68224  97.2793 322.3390 0001092  91.2802  52.4960 15.80807362  2870
STARLINK-36960          
1 68225U 26053U   26087.16668981  .00058713  00000+0  30553-3 0  9999
2 68225  97.2790 322.3413 0001561 110.0058  38.0466 15.80792372  2963
STARLINK-37038          
1 68226U 26053V   26087.16668981 -.00181952  00000+0 -96385-3 0  9999
2 68226  97.2789 322.3443 0001279 110.9707  45.5749 15.80934055  2964
STARLINK-37083          
1 68227U 26053W   26087.16668981 -.00060254  00000+0 -31542-3 0  9995
2 68227  97.2791 322.3432 0001473  97.8102  54.4939 15.80855924  2983
